M2 PATHFINDER           
1 45727U 20037E   26068.47969609  .00004468  00000+0  32592-3 0  9994
2 45727  97.8158 258.5983 0012405 127.8041 232.4310 15.04175941310501
STARLINK-34845          
1 65289U 25184S   26068.88900748  .00003407  00000+0  24019-3 0  9998
2 65289  97.6041 122.8987 0001048  90.1053 270.0294 15.05649466 31337
